[{"OBJECT_NAME":"STARLINK-32136","OBJECT_ID":"2024-183G","EPOCH":"2026-03-09T12:32:20.325408","MEAN_MOTION":15.30186561,"ECCENTRICITY":0.000111,"INCLINATION":53.1619,"RA_OF_ASC_NODE":143.4555,"ARG_OF_PERICENTER":94.1261,"MEAN_ANOMALY":265.9867,"EPHEMERIS_TYPE":0,"CLASSIFICATION_TYPE":"U","NORAD_CAT_ID":61515,"ELEMENT_SET_NO":999,"REV_AT_EPOCH":7962,"BSTAR":-7.414411e-6,"MEAN_MOTION_DOT":-5.78e-6,"MEAN_MOTION_DDOT":0},{"OBJECT_NAME":"COSMOS 2535 DEB","OBJECT_ID":"2019-039M","EPOCH":"2026-03-08T03:25:35.903424","MEAN_MOTION":15.28322551,"ECCENTRICITY":0.0014917,"INCLINATION":97.5619,"RA_OF_ASC_NODE":139.2722,"ARG_OF_PERICENTER":329.0964,"MEAN_ANOMALY":30.9396,"EPHEMERIS_TYPE":0,"CLASSIFICATION_TYPE":"U","NORAD_CAT_ID":44641,"ELEMENT_SET_NO":999,"REV_AT_EPOCH":35167,"BSTAR":0.0011539757,"MEAN_MOTION_DOT":0.0003196,"MEAN_MOTION_DDOT":0}]
